IRIDIUM 150             
1 43257U 18030J   24070.50744623  .00000054  00000+0  12050-4 0  9997
2 43257  86.3915 276.7797 0002382  93.6842 266.4626 14.34217929311387
IRIDIUM 143             
1 43258U 18030K   24070.06980795  .00000125  00000+0  37696-4 0  9993
2 43258  86.3920 277.0229 0002515  87.5665 272.5818 14.34218009311258
IRIDIUM 161             
1 43478U 18047C   24070.73464147  .00000239  00000+0  65109-4 0  9993
2 43478  86.4434  74.7057 0002260  90.7690 269.3770 14.43297894305641
IRIDIUM 152             
1 43479U 18047D   24070.74021137  .00000026  00000+0  21515-5 0  9991
2 43479  86.3909  74.5629 0002335  88.1039 272.0424 14.34217856303759
IRIDIUM 147             
1 43480U 18047E   24070.74655216  .00000200  00000+0  64336-4 0  9995
2 43480  86.3910  74.5507 0002072  92.6330 267.5103 14.34219121303749
IRIDIUM 110             
1 43481U 18047F   24070.75289586  .00000228  00000+0  74374-4 0  9993
2 43481  86.3911  74.6185 0002010 100.2691 259.8731 14.34217898303731
IRIDIUM 162             
1 43482U 18047G   24070.45122976  .00000242  00000+0  65822-4 0  9994
2 43482  86.4433  74.7257 0002173  90.0397 270.1053 14.43276514305591
IRIDIUM 160             
1 43569U 18061A   24070.62896224  .00000066  00000+0  16639-4 0  9995
2 43569  86.3966  43.0217 0002066  77.3596 282.7830 14.34216567294616
